{
    "links": {
        "self": "http://www.neowsapp.com/rest/v1/neo/54016519?api_key=iIulBulltgU6a56xZRHN4H3l9WmuAYTsLGpBGhQ2"
    },
    "id": "54016519",
    "neo_reference_id": "54016519",
    "name": "(2020 GV2)",
    "designation": "2020 GV2",
    "nasa_jpl_url": "http://ssd.jpl.nasa.gov/sbdb.cgi?sstr=54016519",
    "absolute_magnitude_h": 26.854,
    "estimated_diameter": {
        "kilometers": {
            "estimated_diameter_min": 0.0113176166,
            "estimated_diameter_max": 0.02530696
        },
        "meters": {
            "estimated_diameter_min": 11.3176165762,
            "estimated_diameter_max": 25.3069600077
        },
        "miles": {
            "estimated_diameter_min": 0.0070324387,
            "estimated_diameter_max": 0.015725011
        },
        "feet": {
            "estimated_diameter_min": 37.1312891679,
            "estimated_diameter_max": 83.0280866717
        }
    },
    "is_potentially_hazardous_asteroid": false,
    "close_approach_data": [
        {
            "close_approach_date": "2020-04-13",
            "close_approach_date_full": "2020-Apr-13 06:51",
            "epoch_date_close_approach": 1586760660000,
            "relative_velocity": {
                "kilometers_per_second": "16.0526892646",
                "kilometers_per_hour": "57789.6813526216",
                "miles_per_hour": "35908.260616022"
            },
            "miss_distance": {
                "astronomical": "0.0073475415",
                "lunar": "2.8581936435",
                "kilometers": "1099176.558136605",
                "miles": "682996.642250949"
            },
            "orbiting_body": "Earth"
        },
        {
            "close_approach_date": "2020-04-13",
            "close_approach_date_full": "2020-Apr-13 09:41",
            "epoch_date_close_approach": 1586770860000,
            "relative_velocity": {
                "kilometers_per_second": "16.8640872535",
                "kilometers_per_hour": "60710.7141127544",
                "miles_per_hour": "37723.2767774501"
            },
            "miss_distance": {
                "astronomical": "0.0094419131",
                "lunar": "3.6729041959",
                "kilometers": "1412490.088485097",
                "miles": "877680.6423924586"
            },
            "orbiting_body": "Moon"
        },
        {
            "close_approach_date": "2021-08-10",
            "close_approach_date_full": "2021-Aug-10 17:06",
            "epoch_date_close_approach": 1628615160000,
            "relative_velocity": {
                "kilometers_per_second": "9.9529462195",
                "kilometers_per_hour": "35830.606390358",
                "miles_per_hour": "22263.7453984977"
            },
            "miss_distance": {
                "astronomical": "1.7571188749",
                "lunar": "683.5192423361",
                "kilometers": "262861241.021836463",
                "miles": "163334401.2541426694"
            },
            "orbiting_body": "Juptr"
        }
    ],
    "orbital_data": {
        "orbit_id": "7",
        "orbit_determination_date": "2020-08-21 06:33:52",
        "first_observation_date": "2020-04-13",
        "last_observation_date": "2020-04-21",
        "data_arc_in_days": 8,
        "observations_used": 49,
        "orbit_uncertainty": "8",
        "minimum_orbit_intersection": ".000953238",
        "jupiter_tisserand_invariant": "3.056",
        "epoch_osculation": "2458958.5",
        "eccentricity": ".6900244158771585",
        "semi_major_axis": "2.545916680654682",
        "inclination": ".7024950906631454",
        "ascending_node_longitude": "18.51197842055868",
        "orbital_period": "1483.763579542966",
        "perihelion_distance": ".7891720102140211",
        "perihelion_argument": "122.9428938995167",
        "aphelion_distance": "4.302661351095344",
        "perihelion_time": "2458912.769321169495",
        "mean_anomaly": "11.0954633244555",
        "mean_motion": ".2426262545889476",
        "equinox": "J2000",
        "orbit_class": {
            "orbit_class_type": "APO",
            "orbit_class_description": "Near-Earth asteroid orbits which cross the Earth’s orbit similar to that of 1862 Apollo",
            "orbit_class_range": "a (semi-major axis) > 1.0 AU; q (perihelion) < 1.017 AU"
        }
    },
    "is_sentry_object": false
}